GOES 1 (SMS-C) [-]      
1 08366U 75100A   22212.33378699 -.00000219  00000+0  00000+0 0  9994
2 08366   8.1728 295.1788 0002482 228.7127 184.3193  1.00279000170866
GOES 2 [-]              
1 10061U 77048A   22212.25827444 -.00000140  00000+0  00000+0 0  9993
2 10061   9.7527 306.6265 0010293  29.9502 350.6924  0.99395725 32193
GOES 3 [-]              
1 10953U 78062A   22212.31040649 -.00000308  00000+0  00000+0 0  9997
2 10953  10.0831 311.1369 0003586 153.8151  95.9563  0.99364698114459
GOES 4 [-]              
1 11964U 80074A   22212.51562837 -.00000087  00000+0  00000+0 0  9990
2 11964  11.0423 314.9602 0032673  77.7146 288.8363  0.99232976113383
GOES 5 [-]              
1 12472U 81049A   22212.25792564 -.00000253  00000+0  00000+0 0  9996
2 12472  11.8830 326.3323 0002596 158.8439 199.8113  1.00316512108630
GOES 6 [-]              
1 14050U 83041A   22212.25766404 -.00000248  00000+0  00000+0 0  9992
2 14050  12.4422 331.6373 0005496 146.0690 205.7537  1.00296684201809
GOES 7 [-]              
1 17561U 87022A   22212.24338556  .00000019  00000+0  00000+0 0  9992
2 17561  14.2046 348.1889 0006019  78.2405 157.6307  0.99906677112806
GOES 8 [-]              
1 23051U 94022A   22212.39191472 -.00000284  00000+0  00000+0 0  9996
2 23051  13.2129  23.8791 0007141  52.3947 159.8179  0.98907796110113
GOES 9 [-]              
1 23581U 95025A   22212.13686735 -.00000026  00000+0  00000+0 0  9995
2 23581  12.7058  24.2151 0009181  99.9624 270.0779  0.98799742 98764
GOES 10 [-]             
1 24786U 97019A   22212.44030896 -.00000228  00000+0  00000+0 0  9997
2 24786  11.4670  30.3842 0025578 198.2964 357.6398  0.99124677 92012
GOES 11 [-]             
1 26352U 00022A   22212.41112340 -.00000244  00000+0  00000+0 0  9996
2 26352   8.7740  58.9748 0002253  78.6323 291.5407  0.99044947 80965
GOES 12 [-]             
1 26871U 01031A   22212.09424330 -.00000003  00000+0  00000+0 0  9995
2 26871   9.5932  47.8974 0005654 345.5492 210.7399  0.99134901 76713
EWS-G1 (GOES 13) [+]    
1 29155U 06018A   22212.50066134  .00000042  00000+0  00000+0 0  9995
2 29155   0.7031  96.7596 0004767  93.2814   0.5296  1.00274450 29172
GOES 14 [B]             
1 35491U 09033A   22212.45162962 -.00000088  00000+0  00000+0 0  9996
2 35491   0.4175  94.8533 0013991 116.6796 155.5210  1.00272862 47909
GOES 15 [B]             
1 36411U 10008A   22212.49803988  .00000056  00000+0  00000+0 0  9991
2 36411   0.3894 100.1317 0002381  45.1703 215.0461  1.00280384 45462
GOES 16 [+]             
1 41866U 16071A   22212.40170575 -.00000244  00000+0  00000+0 0  9997
2 41866   0.0568 253.3681 0000522 292.6568 192.3776  1.00270865 20906
GOES 17 [+]             
1 43226U 18022A   22212.52896837  .00000102  00000+0  00000+0 0  9998
2 43226   0.0911 262.2247 0000202 215.3422 244.6790  1.00271797 16214
GOES 18 [+]             
1 51850U 22021A   22212.48803517  .00000100  00000+0  00000+0 0  9990
2 51850   0.0404  97.1285 0002644 115.0308 135.6347  1.00272284  1573
